ONEWEB-0281             
1 48999U 21060AJ  23317.52473780  .00000032  00000+0  50041-4 0  9998
2 48999  87.9090  57.1774 0001821  95.9099 264.2239 13.16594940115061
ONEWEB-0282             
1 49000U 21060AK  23317.32630281  .00000062  00000+0  12746-3 0  9993
2 49000  87.9087  57.2331 0001275 108.6265 251.5004 13.16594675115010
ONEWEB-0283             
1 49001U 21060AL  23317.54374343  .00000006  00000+0 -17576-4 0  9998
2 49001  87.9079  57.2037 0001303  94.0939 266.0341 13.16595428115059
ONEWEB-0284             
1 49002U 21060AM  23317.53740961  .00000005  00000+0 -20276-4 0  9991
2 49002  87.9075  57.2014 0001388 109.9296 250.1985 13.16596429115034
ONEWEB-0285             
1 49075U 21075A   23317.34821957 -.00000345  00000+0 -99482-3 0  9993
2 49075  87.9032 178.9642 0001458  82.3164 277.8130 13.12445150111013
ONEWEB-0286             
1 49076U 21075B   23317.54722805  .00000167  00000+0  42998-3 0  9998
2 49076  87.9026 178.9341 0002015  81.0852 279.0505 13.12446893110398
ONEWEB-0287             
1 49077U 21075C   23317.39632897  .00000051  00000+0  98619-4 0  9997
2 49077  87.9232 194.0609 0001702  91.2889 268.8437 13.17649687108948
ONEWEB-0288             
1 49078U 21075D   23317.53244469  .00000387  00000+0  10417-2 0  9998
2 49078  87.9025 178.9422 0001629  83.8690 276.2624 13.12445076111012
